0 ABS 6 (LMI 1)
1 25924U 99053A   13281.82346697 -.00000099  00000-0  10000-3 0  4907
2 25924 000.0411 110.1822 0002105 076.2485 202.6214 01.00272649 51447
0 ABS 6 (LMI 1)
1 25924U 99053A   13283.06856604 -.00000103  00000-0  10000-3 0  4916
2 25924 000.0466 100.6994 0002072 086.8581 290.9598 01.00272640 51455
0 ABS 6 (LMI 1)
1 25924U 99053A   13283.08625861  .00000000  00000-0  10000-3 0  4923
2 25924 000.0416 095.2558 0001934 100.1724 289.4685 01.00268691 51383
0 ABS 6 (LMI 1)
1 25924U 99053A   13284.09673579 -.00000106  00000-0  10000-3 0  4922
2 25924 000.0507 095.0219 0002024 094.2805 300.3699 01.00272616 51469
0 ABS 6 (LMI 1)
1 25924U 99053A   13286.80824706 -.00000112  00000-0  10000-3 0  4942
2 25924 000.0575 078.0107 0001870 104.8058 205.6641 01.00271637 51496
0 ABS 6 (LMI 1)
1 25924U 99053A   13287.57086550 -.00000112  00000-0  10000-3 0  4955
2 25924 000.0581 077.2698 0001904 113.2368 113.2642 01.00271554 51498
0 ABS 6 (LMI 1)
1 25924U 99053A   13288.84700293 -.00000111  00000-0  10000-3 0  4963
2 25924 000.0619 081.2087 0001910 104.3241 218.9048 01.00271583 51513
0 ABS 6 (LMI 1)
1 25924U 99053A   13289.08363881 -.00000111  00000-0  10000-3 0  4979
2 25924 000.0618 077.5936 0001995 115.8594 296.4025 01.00271445 51517
0 ABS 6 (LMI 1)
1 25924U 99053A   13290.56095234 -.00000108  00000-0  10000-3 0  4985
2 25924 000.0648 077.4021 0001995 118.1872 107.5534 01.00271506 51525
0 ABS 6 (LMI 1)
1 25924U 99053A   13291.89897188 -.00000106  00000-0  10000-3 0  4999
2 25924 000.0675 077.0218 0001971 118.8062 230.3197 01.00271559 51541
0 ABS 6 (LMI 1)
1 25924U 99053A   13292.92332801 -.00000104  00000-0  10000-3 0  5001
2 25924 000.0696 076.9749 0001958 118.8137 240.1361 01.00271584 51550
0 ABS 6 (LMI 1)
1 25924U 99053A   13293.80291063 -.00000102  00000-0  10000-3 0  5012
2 25924 000.0721 080.3223 0002015 118.8405 194.2897 01.00272129 51568
0 ABS 6 (LMI 1)
1 25924U 99053A   13294.92571237 -.00000100  00000-0  10000-3 0  5029
2 25924 000.0741 080.5620 0002028 118.9013 239.3046 01.00272125 51577
